     2.100          NAVIGATION                              RINEX VERSION / TYPE
fic2rin                                 12/28/2013 00:15:27 PGM / RUN BY / DATE
                                                            END OF HEADER
14 13 12 28  0  0  0.0  .206492375582D-03 -.113686837722D-11  .000000000000D+00
     .940000000000D+02  .979687500000D+02  .434553815196D-08 -.230983845349D+01
     .517070293427D-05  .729461328592D-02  .598095357418D-05  .515360605812D+04
     .518400000000D+06  .117346644402D-06 -.306058739341D+01  .670552253723D-07
     .972155717593D+00  .269375000000D+03 -.198369395352D+01 -.798747556756D-08
     .204651381694D-09  .100000000000D+01  .177200000000D+04  .000000000000D+00
     .240000000000D+01  .000000000000D+00 -.884756445885D-08  .940000000000D+02
     .511206000000D+06  .400000000000D+01
16 13 12 28  0  0  0.0 -.237422063947D-03  .125055521494D-11  .000000000000D+00
     .950000000000D+02 -.634062500000D+02  .371158317377D-08 -.117532468764D+01
    -.336952507496D-05  .724142859690D-02  .954046845436D-05  .515377474594D+04
     .518400000000D+06  .298023223877D-07 -.984384378555D+00 -.180676579475D-06
     .986844267991D+00  .210406250000D+03  .128225152932D+00 -.764246119633D-08
    -.392873507616D-11  .100000000000D+01  .177200000000D+04  .000000000000D+00
     .240000000000D+01  .000000000000D+00 -.977888703346D-08  .950000000000D+02
     .511206000000D+06  .400000000000D+01
17 13 12 28  0  0  0.0 -.539678148925D-04 -.341060513165D-11  .000000000000D+00
     .330000000000D+02 -.796875000000D+01  .435089551798D-08 -.213244157081D+01
    -.393018126488D-06  .894271815196D-02  .805221498013D-05  .515371801186D+04
     .518400000000D+06  .100582838058D-06  .493939455475D-01 -.137835741043D-06
     .967626574422D+00  .228250000000D+03 -.216300120534D+01 -.775639451354D-08
     .516807241382D-09  .100000000000D+01  .177200000000D+04  .000000000000D+00
     .240000000000D+01  .000000000000D+00 -.107102096081D-07  .330000000000D+02
     .511206000000D+06  .400000000000D+01
18 13 12 28  0  0  0.0  .292823184282D-03  .204636307899D-11  .000000000000D+00
     .120000000000D+02  .245000000000D+02  .536808074497D-08 -.558602712342D+00
     .145286321640D-05  .146037881495D-01  .104252249002D-04  .515366100502D+04
     .518400000000D+06 -.838190317154D-07  .209694059399D+01  .247731804848D-06
     .926081826591D+00  .164968750000D+03 -.206670363091D+01 -.857142846297D-08
    -.216080429189D-09  .100000000000D+01  .177200000000D+04  .000000000000D+00
     .240000000000D+01  .000000000000D+00 -.111758708954D-07  .120000000000D+02
     .511206000000D+06  .400000000000D+01
19 13 12 28  0  0  0.0 -.428303610533D-03 -.250111042988D-11  .000000000000D+00
     .780000000000D+02  .218750000000D+00  .447125767440D-08 -.299676792136D+01
     .130385160446D-07  .969734776299D-02  .778026878834D-05  .515376962280D+04
     .518400000000D+06 -.409781932831D-07  .100661489778D+00 -.614672899246D-07
     .964774321580D+00  .233156250000D+03  .399640221294D+00 -.788890003292D-08
     .471448209139D-09  .100000000000D+01  .177200000000D+04  .000000000000D+00
     .240000000000D+01  .000000000000D+00 -.149011611938D-07  .780000000000D+02
     .511206000000D+06  .400000000000D+01
20 13 12 28  0  0  0.0  .148129183799D-03  .306954461848D-11  .000000000000D+00
     .150000000000D+02  .298750000000D+02  .526271921338D-08 -.712438822451D-01
     .136345624924D-05  .593143154401D-02  .107828527689D-04  .515361336899D+04
     .518400000000D+06 -.447034835815D-07  .204370350560D+01  .484287738800D-07
     .926954277286D+00  .157687500000D+03  .129697385411D+01 -.837927760197D-08
    -.261796619166D-09  .100000000000D+01  .177200000000D+04  .000000000000D+00
     .240000000000D+01  .000000000000D+00 -.791624188423D-08  .150000000000D+02
     .511206000000D+06  .400000000000D+01
21 13 12 28  0  0  0.0 -.335033982992D-03 -.170530256582D-11  .000000000000D+00
     .970000000000D+02 -.228750000000D+02  .557523223080D-08  .481010535128D+00
    -.105425715446D-05  .208167922683D-01  .640377402306D-05  .515357398796D+04
     .518400000000D+06 -.342726707458D-06  .105044091129D+01  .130385160446D-06
     .931734350407D+00  .245281250000D+03 -.207907164214D+01 -.885465454619D-08
    -.219652006531D-09  .100000000000D+01  .177200000000D+04  .000000000000D+00
     .240000000000D+01  .000000000000D+00 -.111758708954D-07  .970000000000D+02
     .511206000000D+06  .400000000000D+01
22 13 12 28  0  0  0.0  .203342642635D-03  .216004991671D-11  .000000000000D+00
     .181000000000D+03  .251562500000D+02  .527164815673D-08 -.110642353996D+01
     .144354999065D-05  .669762818143D-02  .998377799988D-05  .515364402199D+04
     .518400000000D+06  .577419996262D-07  .209912163954D+01  .188127160072D-06
     .923847530826D+00  .167906250000D+03 -.205347248486D+01 -.834749056363D-08
    -.233581158164D-09  .100000000000D+01  .177200000000D+04  .000000000000D+00
     .340000000000D+01  .000000000000D+00 -.172294676304D-07  .181000000000D+03
     .511206000000D+06  .400000000000D+01
23 13 12 28  0  0  0.0  .177500769496D-04 -.329691829393D-11  .000000000000D+00
     .630000000000D+02  .107656250000D+03  .479448542385D-08  .294357575332D+01
     .555440783501D-05  .883379415609D-02  .589899718761D-05  .515361751366D+04
     .518400000000D+06 -.521540641785D-07 -.312315834388D+01 -.124797224998D-06
     .953749473962D+00  .265593750000D+03 -.280787102063D+01 -.817998358629D-08
     .208580116771D-09  .100000000000D+01  .177200000000D+04  .000000000000D+00
     .240000000000D+01  .000000000000D+00 -.200234353542D-07  .630000000000D+02
     .511206000000D+06  .400000000000D+01
24 13 12 28  0  0  0.0 -.205375254154D-04 -.568434188608D-12  .000000000000D+00
     .650000000000D+02 -.180000000000D+02  .486734560162D-08  .240542470010D+01
    -.927597284317D-06  .159704021644D-02  .252388417721D-05  .515363686562D+04
     .518400000000D+06 -.558793544769D-08 -.209656646879D+01  .186264514923D-07
     .957819154064D+00  .328906250000D+03  .106768489576D+00 -.845820946123D-08
    -.152506352502D-09  .100000000000D+01  .177200000000D+04  .000000000000D+00
     .240000000000D+01  .000000000000D+00  .279396772385D-08  .650000000000D+02
     .511206000000D+06  .400000000000D+01
25 13 12 28  0  0  0.0  .534113496542D-05  .250111042988D-11  .000000000000D+00
     .820000000000D+02 -.794687500000D+02  .405945480687D-08  .153736965225D+00
    -.414252281189D-05  .290103384759D-02  .858679413795D-05  .515368223190D+04
     .518400000000D+06  .149011611938D-07 -.104358873613D+01  .502914190292D-07
     .974944051156D+00  .219281250000D+03  .632173573527D+00 -.791211528565D-08
    -.107147320259D-09  .100000000000D+01  .177200000000D+04  .000000000000D+00
     .240000000000D+01  .000000000000D+00  .558793544769D-08  .820000000000D+02
     .511206000000D+06  .400000000000D+01
27 13 12 28  0  0  0.0 -.109733082354D-04 -.250111042988D-11  .000000000000D+00
     .230000000000D+02  .181250000000D+01  .447482925174D-08 -.228371599286D+01
     .160187482834D-06  .538751366548D-03  .800937414169D-05  .515366647911D+04
     .518400000000D+06 -.577419996262D-07  .482480330385D-02  .763684511185D-07
     .962296349014D+00  .227218750000D+03  .312352459419D+00 -.797390357366D-08
     .434660962517D-09  .100000000000D+01  .177200000000D+04  .000000000000D+00
     .240000000000D+01  .000000000000D+00  .186264514923D-08  .230000000000D+02
     .511206000000D+06  .400000000000D+01
28 13 12 28  0  0  0.0  .320014078170D-03  .306954461848D-11  .000000000000D+00
     .240000000000D+02 -.730312500000D+02  .382123059816D-08 -.130734084941D+01
    -.361166894436D-05  .192433061311D-01  .103544443846D-04  .515366193199D+04
     .518400000000D+06  .149011611938D-07 -.978410175145D+00  .508502125740D-06
     .985338157255D+00  .191968750000D+03 -.174246769190D+01 -.780996817367D-08
    -.814319633967D-10  .100000000000D+01  .177200000000D+04  .000000000000D+00
     .240000000000D+01  .000000000000D+00 -.107102096081D-07  .240000000000D+02
     .511206000000D+06  .400000000000D+01
29 13 12 28  0  0  0.0  .498716719449D-03  .306954461848D-11  .000000000000D+00
     .570000000000D+02 -.275000000000D+01  .441089801732D-08  .796703788882D+00
    -.204890966415D-06  .153408141341D-02  .821799039841D-05  .515377900505D+04
     .518400000000D+06 -.186264514923D-07  .583223086725D-01 -.558793544769D-07
     .968316605085D+00  .225687500000D+03 -.101492830573D+01 -.797283210046D-08
     .423946230491D-09  .100000000000D+01  .177200000000D+04  .000000000000D+00
     .240000000000D+01  .000000000000D+00 -.931322574615D-08  .570000000000D+02
     .511206000000D+06  .400000000000D+01
30 13 12 28  0  0  0.0 -.156692229211D-03  .795807864051D-12  .000000000000D+00
     .400000000000D+01 -.729062500000D+02  .515307178898D-08 -.117444096955D+01
    -.386498868465D-05  .642793485895D-02  .920705497265D-05  .515374468613D+04
     .518400000000D+06  .160187482834D-06 -.102596804293D+01  .894069671631D-07
     .979743834172D+00  .212750000000D+03  .851322179157D+00 -.778996734055D-08
    -.123576576032D-09  .100000000000D+01  .177200000000D+04  .000000000000D+00
     .240000000000D+01  .630000000000D+02 -.190921127796D-07  .400000000000D+01
     .511206000000D+06  .400000000000D+01
31 13 12 28  0  0  0.0  .331674236804D-03  .454747350886D-12  .000000000000D+00
     .580000000000D+02 -.266250000000D+02  .427839249793D-08  .134873413841D+01
    -.144541263580D-05  .821402575821D-02  .281631946564D-05  .515374344444D+04
     .518400000000D+06  .117346644402D-06 -.205896293198D+01 -.167638063431D-07
     .979326789875D+00  .329125000000D+03 -.696050010145D+00 -.815283959849D-08
    -.295012288446D-09  .100000000000D+01  .177200000000D+04  .000000000000D+00
     .240000000000D+01  .000000000000D+00 -.130385160446D-07  .580000000000D+02
     .511206000000D+06  .400000000000D+01
